H1 CPF  1  DGF 2022 11 07 10  8111 larets     NONE      
H2   304206 5557    27944 2022 11 07 00 00 00 2022 11 14 00 00 00    30 1 1  0 0 0
H5  0.0650
H9
10 0 59890  18000.000000  0       2942816.361      -1404486.802      -6273713.515
10 0 59890  18030.000000  0       3079138.426      -1555330.903      -6172148.488
10 0 59890  18060.000000  0       3211704.482      -1705198.281      -6064327.100
10 0 59890  18090.000000  0       3340385.522      -1853921.285      -5950358.172
10 0 59890  18120.000000  0       3465057.131      -2001332.818      -5830356.727
10 0 59890  18150.000000  0       3585599.612      -2147266.527      -5704443.873
10 0 59890  18180.000000  0       3701898.100      -2291556.989      -5572746.690
10 0 59890  18210.000000  0       3813842.675      -2434039.898      -5435398.105
10 0 59890  18240.000000  0       3921328.464      -2574552.249      -5292536.770
10 0 59890  18270.000000  0       4024255.743      -2712932.530      -5144306.920
10 0 59890  18300.000000  0       4122530.031      -2849020.899      -4990858.242
10 0 59890  18330.000000  0       4216062.181      -2982659.371      -4832345.723
10 0 59890  18360.000000  0       4304768.454      -3113692.002      -4668929.506
10 0 59890  18390.000000  0       4388570.609      -3241965.066      -4500774.737
10 0 59890  18420.000000  0       4467395.966      -3367327.238      -4328051.401
10 0 59890  18450.000000  0       4541177.482      -3489629.772      -4150934.161
10 0 59890  18480.000000  0       4609853.802      -3608726.680      -3969602.186
10 0 59890  18510.000000  0       4673369.325      -3724474.904      -3784238.973
10 0 59890  18540.000000  0       4731674.242      -3836734.493      -3595032.169
10 0 59890  18570.000000  0       4784724.585      -3945368.770      -3402173.385
10 0 59890  18600.000000  0       4832482.260      -4050244.505      -3205858.002
10 0 59890  18630.000000  0       4874915.073      -4151232.072      -3006284.976
10 0 59890  18660.000000  0       4911996.756      -4248205.614      -2803656.636
10 0 59890  18690.000000  0       4943706.974      -4341043.195      -2598178.487
10 0 59890  18720.000000  0       4970031.345      -4429626.958      -2390059.004
10 0 59890  18750.000000  0       4990961.435      -4513843.274      -2179509.416
10 0 59890  18780.000000  0       5006494.760      -4593582.893      -1966743.495
10 0 59890  18810.000000  0       5016634.767      -4668741.080      -1751977.336
10 0 59890  18840.000000  0       5021390.817      -4739217.756      -1535429.131
10 0 59890  18870.000000  0       5020778.158      -4804917.627      -1317318.955
10 0 59890  18900.000000  0       5014817.893      -4865750.310      -1097868.531
10 0 59890  18930.000000  0       5003536.943      -4921630.456       -877301.008
10 0 59890  18960.000000  0       4986967.995      -4972477.866       -655840.728
10 0 59890  18990.000000  0       4965149.452      -5018217.602       -433712.992
10 0 59890  19020.000000  0       4938125.370      -5058780.086       -211143.830
10 0 59890  19050.000000  0       4905945.394      -5094101.202         11640.232
10 0 59890  19080.000000  0       4868664.688      -5124122.386        234412.406
10 0 59890  19110.000000  0       4826343.858      -5148790.717        456945.882
10 0 59890  19140.000000  0       4779048.864      -5168058.990        679014.062
10 0 59890  19170.000000  0       4726850.927      -5181885.793        900390.798
10 0 59890  19200.000000  0       4669826.432      -5190235.570       1120850.629
10 0 59890  19230.000000  0       4608056.822      -5193078.678       1340169.013
10 0 59890  19260.000000  0       4541628.489      -5190391.439       1558122.556
10 0 59890  19290.000000  0       4470632.655      -5182156.187       1774489.246
10 0 59890  19320.000000  0       4395165.261      -5168361.306       1989048.680
10 0 59890  19350.000000  0       4315326.835      -5149001.263       2201582.294
10 0 59890  19380.000000  0       4231222.367      -5124076.636       2411873.588
10 0 59890  19410.000000  0       4142961.170      -5093594.125       2619708.350
10 0 59890  19440.000000  0       4050656.746      -5057566.568       2824874.880
10 0 59890  19470.000000  0       3954426.634      -5016012.940       3027164.207
10 0 59890  19500.000000  0       3854392.268      -4968958.354       3226370.304
10 0 59890  19530.000000  0       3750678.817      -4916434.044       3422290.299
10 0 59890  19560.000000  0       3643415.034      -4858477.347       3614724.683
10 0 59890  19590.000000  0       3532733.094      -4795131.685       3803477.511
10 0 59890  19620.000000  0       3418768.433      -4726446.522       3988356.607
10 0 59890  19650.000000  0       3301659.581      -4652477.334       4169173.752
10 0 59890  19680.000000  0       3181547.993      -4573285.558       4345744.883
10 0 59890  19710.000000  0       3058577.881      -4488938.539       4517890.277
10 0 59890  19740.000000  0       2932896.035      -4399509.472       4685434.728
10 0 59890  19770.000000  0       2804651.649      -4305077.334       4848207.730
10 0 59890  19800.000000  0       2673996.144      -4205726.814       5006043.637
10 0 59890  19830.000000  0       2541082.992      -4101548.237       5158781.839
10 0 59890  19860.000000  0       2406067.532      -3992637.476       5306266.920
10 0 59890  19890.000000  0       2269106.787      -3879095.864       5448348.814
10 0 59890  19920.000000  0       2130359.282      -3761030.089       5584882.961
10 0 59890  19950.000000  0       1989984.855      -3638552.095       5715730.439
10 0 59890  19980.000000  0       1848144.476      -3511778.968       5840758.109
10 0 59890  20010.000000  0       1705000.062      -3380832.825       5959838.737
10 0 59890  20040.000000  0       1560714.291      -3245840.691       6072851.126
10 0 59890  20070.000000  0       1415450.418      -3106934.378       6179680.228
10 0 59890  20100.000000  0       1269372.091      -2964250.352       6280217.262
10 0 59890  20130.000000  0       1122643.167      -2817929.600       6374359.818
10 0 59890  20160.000000  0        975427.526      -2668117.487       6462011.959
10 0 59890  20190.000000  0        827888.890      -2514963.609       6543084.313
10 0 59890  20220.000000  0        680190.640      -2358621.647       6617494.158
10 0 59890  20250.000000  0        532495.641      -2199249.207       6685165.500
10 0 59890  20280.000000  0        384966.060      -2037007.668       6746029.153
10 0 59890  20310.000000  0        237763.195      -1872062.021       6800022.803
10 0 59890  20340.000000  0         91047.294      -1704580.696       6847091.079
10 0 59890  20370.000000  0        -55022.613      -1534735.393       6887185.605
10 0 59890  20400.000000  0       -200288.892      -1362700.900       6920265.047
10 0 59890  20430.000000  0       -344595.468      -1188654.919       6946295.154
10 0 59890  20460.000000  0       -487787.992      -1012777.886       6965248.793
10 0 59890  20490.000000  0       -629714.008       -835252.779       6977105.982
10 0 59890  20520.000000  0       -770223.111       -656264.935       6981853.907
10 0 59890  20550.000000  0       -909167.114       -476001.854       6979486.942
10 0 59890  20580.000000  0      -1046400.196       -294653.005       6970006.655
10 0 59890  20610.000000  0      -1181779.060       -112409.629       6953421.808
10 0 59890  20640.000000  0      -1315163.084         70535.461       6929748.356
10 0 59890  20670.000000  0      -1446414.460        253988.088       6899009.432
10 0 59890  20700.000000  0      -1575398.343        437752.907       6861235.328
10 0 59890  20730.000000  0      -1701982.992        621633.620       6816463.473
10 0 59890  20760.000000  0      -1826039.899        805433.178       6764738.400
10 0 59890  20790.000000  0      -1947443.931        988953.997       6706111.704
10 0 59890  20820.000000  0      -2066073.450       1171998.164       6640642.000
10 0 59890  20850.000000  0      -2181810.443       1354367.657       6568394.868
10 0 59890  20880.000000  0      -2294540.635       1535864.553       6489442.795
10 0 59890  20910.000000  0      -2404153.612       1716291.246       6403865.108
10 0 59890  20940.000000  0      -2510542.924       1895450.661       6311747.904
10 0 59890  20970.000000  0      -2613606.200       2073146.476       6213183.972
10 0 59890  21000.000000  0      -2713245.245       2249183.335       6108272.706
10 0 59890  21030.000000  0      -2809366.139       2423367.067       5997120.012
10 0 59890  21060.000000  0      -2901879.331       2595504.906       5879838.206
10 0 59890  21090.000000  0      -2990699.726       2765405.702       5756545.912
10 0 59890  21120.000000  0      -3075746.767       2932880.139       5627367.945
10 0 59890  21150.000000  0      -3156944.520       3097740.951       5492435.192
10 0 59890  21180.000000  0      -3234221.738       3259803.137       5351884.489
10 0 59890  21210.000000  0      -3307511.933       3418884.172       5205858.483
10 0 59890  21240.000000  0      -3376753.437       3574804.218       5054505.496
10 0 59890  21270.000000  0      -3441889.455       3727386.339       4897979.379
10 0 59890  21300.000000  0      -3502868.118       3876456.701       4736439.360
10 0 59890  21330.000000  0      -3559642.526       4021844.785       4570049.885
10 0 59890  21360.000000  0      -3612170.790       4163383.581       4398980.454
10 0 59890  21390.000000  0      -3660416.058       4300909.796       4223405.448
10 0 59890  21420.000000  0      -3704346.549       4434264.040       4043503.957
10 0 59890  21450.000000  0      -3743935.568       4563291.027       3859459.595
10 0 59890  21480.000000  0      -3779161.522       4687839.763       3671460.315
10 0 59890  21510.000000  0      -3810007.929       4807763.728       3479698.213
10 0 59890  21540.000000  0      -3836463.422       4922921.057       3284369.329
10 0 59890  21570.000000  0      -3858521.740       5033174.713       3085673.445
99
